IRIDIUM 119             
1 42959U 17061E   23308.85614127  .00000120  00000+0  35633-4 0  9990
2 42959  86.3974  64.4810 0001708  98.4436 261.6953 14.34216874317880
IRIDIUM 107             
1 42960U 17061F   23308.38678880  .00000042  00000+0  81104-5 0  9994
2 42960  86.3974  64.6926 0001971 101.5008 258.6409 14.34214481317823
IRIDIUM 132             
1 42961U 17061G   23309.09081745  .00000578  00000+0  19920-3 0  9991
2 42961  86.3974  64.3844 0001840 100.3673 259.7731 14.34219234317922
IRIDIUM 136             
1 42962U 17061H   23308.70392071  .00000165  00000+0  51701-4 0  9992
2 42962  86.3973  64.5484 0001793  89.2122 270.9279 14.34215564317884
IRIDIUM 139             
1 42963U 17061J   23308.84979942  .00000002  00000+0 -64666-5 0  9992
2 42963  86.3975  64.5342 0001951 101.0549 259.0866 14.34217422317911
IRIDIUM 125             
1 42964U 17061K   23308.83711222  .00000494  00000+0  16939-3 0  9999
2 42964  86.3977  64.5831 0001733  98.8182 261.3211 14.34216581317927
IRIDIUM 135             
1 43070U 17083A   23308.67170477  .00000416  00000+0  14138-3 0  9998
2 43070  86.4002   1.3663 0002464  96.2126 263.9350 14.34218517307191
IRIDIUM 138             
1 43071U 17083B   23309.18545280  .00000536  00000+0  18430-3 0  9996
2 43071  86.3992   0.8974 0001920  94.9103 265.2312 14.34220055307254
